[{"OBJECT_NAME":"NINGXIA-1 2","OBJECT_ID":"2019-076B","EPOCH":"2026-03-09T23:24:08.353152","MEAN_MOTION":14.02042017,"ECCENTRICITY":0.00068224,"INCLINATION":45.0077,"RA_OF_ASC_NODE":263.5361,"ARG_OF_PERICENTER":35.7549,"MEAN_ANOMALY":324.3741,"EPHEMERIS_TYPE":0,"CLASSIFICATION_TYPE":"U","NORAD_CAT_ID":44780,"ELEMENT_SET_NO":999,"REV_AT_EPOCH":32393,"BSTAR":9.5801931e-5,"MEAN_MOTION_DOT":1.7e-7,"MEAN_MOTION_DDOT":0},{"OBJECT_NAME":"CZ-6A DEB","OBJECT_ID":"2022-151LE","EPOCH":"2026-03-09T22:32:05.290368","MEAN_MOTION":14.10488351,"ECCENTRICITY":0.00495855,"INCLINATION":98.8508,"RA_OF_ASC_NODE":73.3349,"ARG_OF_PERICENTER":219.2554,"MEAN_ANOMALY":140.5018,"EPHEMERIS_TYPE":0,"CLASSIFICATION_TYPE":"U","NORAD_CAT_ID":54554,"ELEMENT_SET_NO":999,"REV_AT_EPOCH":17078,"BSTAR":0.00025074122,"MEAN_MOTION_DOT":4.07e-6,"MEAN_MOTION_DDOT":0}]
